STARLINK-35828          
1 66351U 25254D   25337.16668980 -.02026783  00000+0 -23518-1 0  9992
2 66351  53.1592 322.5528 0001043  87.1421 248.1244 15.64517329  5357
STARLINK-35850          
1 66352U 25254E   25337.16668980 -.02069401  00000+0 -24038-1 0  9995
2 66352  53.1594 322.5485 0001083  93.7415 243.3994 15.64564955  5336
STARLINK-35869          
1 66353U 25254F   25337.16668980 -.02075616  00000+0 -24117-1 0  9999
2 66353  53.1598 322.5439 0001075  88.1697 250.8872 15.64569404  5388
STARLINK-35895          
1 66354U 25254G   25337.16668980 -.00644134  00000+0 -12376-1 0  9999
2 66354  53.1591 322.8501 0001386  89.1227  98.4382 15.49721368  5384
STARLINK-35861          
1 66355U 25254H   25337.16668980 -.02073242  00000+0 -24089-1 0  9992
2 66355  53.1593 322.5363 0001037  86.1172 256.7747 15.64566341  5388
STARLINK-35851          
1 66356U 25254J   25337.16668980 -.02076415  00000+0 -24128-1 0  9992
2 66356  53.1594 322.5318 0001118  90.1870 254.6207 15.64568907  5388
STARLINK-35817          
1 66357U 25254K   25337.16668980 -.02073897  00000+0 -24097-1 0  9999
2 66357  53.1597 322.5277 0001095  92.4582 254.2683 15.64566292  5384
STARLINK-35807          
1 66358U 25254L   25337.16668980 -.02070196  00000+0 -24051-1 0  9999
2 66358  53.1597 322.5232 0000979  88.6681 259.9786 15.64563498  5384
STARLINK-35805          
1 66359U 25254M   25337.16668980 -.02073989  00000+0 -24096-1 0  9992
2 66359  53.1595 322.5196 0001133  88.8087 261.7493 15.64567932  5357
STARLINK-35823          
1 66360U 25254N   25337.16668980 -.02073896  00000+0 -24095-1 0  9990
2 66360  53.1592 322.5108 0001034  90.4850 263.9056 15.64568905  5389
STARLINK-35813          
1 66361U 25254P   25337.16668980 -.02067837  00000+0 -24018-1 0  9994
2 66361  53.1594 322.5157 0001148  89.9853 262.4891 15.64564041  5386
STARLINK-35822          
1 66362U 25254Q   25337.16668980 -.02071205  00000+0 -24062-1 0  9998
2 66362  53.1598 322.5036 0001065  86.4926 271.7333 15.64565646  5384
