CCSDS_OMM_VERS = 2.0
CREATION_DATE  = 
ORIGINATOR     = 

OBJECT_NAME    = STARLINK-35828
OBJECT_ID      = 2025-254D
CENTER_NAME    = EARTH
REF_FRAME      = TEME
TIME_SYSTEM    = UTC
MEAN_ELEMENT_THEORY = SGP/SGP4

EPOCH          = 2025-12-03T04:00:01.998720
MEAN_MOTION    = 15.64517329
ECCENTRICITY   = .0001043
INCLINATION    = 53.1592
RA_OF_ASC_NODE = 322.5528
ARG_OF_PERICENTER = 87.1421
MEAN_ANOMALY   = 248.1244

EPHEMERIS_TYPE = 0
CLASSIFICATION_TYPE = U
NORAD_CAT_ID   = 66351
ELEMENT_SET_NO = 999
REV_AT_EPOCH   = 535
BSTAR          = -.23518E-1
MEAN_MOTION_DOT = -.2026783E-1
MEAN_MOTION_DDOT = 0

CCSDS_OMM_VERS = 2.0
CREATION_DATE  = 
ORIGINATOR     = 

OBJECT_NAME    = STARLINK-35850
OBJECT_ID      = 2025-254E
CENTER_NAME    = EARTH
REF_FRAME      = TEME
TIME_SYSTEM    = UTC
MEAN_ELEMENT_THEORY = SGP/SGP4

EPOCH          = 2025-12-03T04:00:01.998720
MEAN_MOTION    = 15.64564955
ECCENTRICITY   = .0001083
INCLINATION    = 53.1594
RA_OF_ASC_NODE = 322.5485
ARG_OF_PERICENTER = 93.7415
MEAN_ANOMALY   = 243.3994

EPHEMERIS_TYPE = 0
CLASSIFICATION_TYPE = U
NORAD_CAT_ID   = 66352
ELEMENT_SET_NO = 999
REV_AT_EPOCH   = 533
BSTAR          = -.24038E-1
MEAN_MOTION_DOT = -.2069401E-1
MEAN_MOTION_DDOT = 0

CCSDS_OMM_VERS = 2.0
CREATION_DATE  = 
ORIGINATOR     = 

OBJECT_NAME    = STARLINK-35869
OBJECT_ID      = 2025-254F
CENTER_NAME    = EARTH
REF_FRAME      = TEME
TIME_SYSTEM    = UTC
MEAN_ELEMENT_THEORY = SGP/SGP4

EPOCH          = 2025-12-03T04:00:01.998720
MEAN_MOTION    = 15.64569404
ECCENTRICITY   = .0001075
INCLINATION    = 53.1598
RA_OF_ASC_NODE = 322.5439
ARG_OF_PERICENTER = 88.1697
MEAN_ANOMALY   = 250.8872

EPHEMERIS_TYPE = 0
CLASSIFICATION_TYPE = U
NORAD_CAT_ID   = 66353
ELEMENT_SET_NO = 999
REV_AT_EPOCH   = 538
BSTAR          = -.24117E-1
MEAN_MOTION_DOT = -.2075616E-1
MEAN_MOTION_DDOT = 0

CCSDS_OMM_VERS = 2.0
CREATION_DATE  = 
ORIGINATOR     = 

OBJECT_NAME    = STARLINK-35895
OBJECT_ID      = 2025-254G
CENTER_NAME    = EARTH
REF_FRAME      = TEME
TIME_SYSTEM    = UTC
MEAN_ELEMENT_THEORY = SGP/SGP4

EPOCH          = 2025-12-03T04:00:01.998720
MEAN_MOTION    = 15.49721368
ECCENTRICITY   = .0001386
INCLINATION    = 53.1591
RA_OF_ASC_NODE = 322.8501
ARG_OF_PERICENTER = 89.1227
MEAN_ANOMALY   = 98.4382

EPHEMERIS_TYPE = 0
CLASSIFICATION_TYPE = U
NORAD_CAT_ID   = 66354
ELEMENT_SET_NO = 999
REV_AT_EPOCH   = 538
BSTAR          = -.12376E-1
MEAN_MOTION_DOT = -.644134E-2
MEAN_MOTION_DDOT = 0

CCSDS_OMM_VERS = 2.0
CREATION_DATE  = 
ORIGINATOR     = 

OBJECT_NAME    = STARLINK-35861
OBJECT_ID      = 2025-254H
CENTER_NAME    = EARTH
REF_FRAME      = TEME
TIME_SYSTEM    = UTC
MEAN_ELEMENT_THEORY = SGP/SGP4

EPOCH          = 2025-12-03T04:00:01.998720
MEAN_MOTION    = 15.64566341
ECCENTRICITY   = .0001037
INCLINATION    = 53.1593
RA_OF_ASC_NODE = 322.5363
ARG_OF_PERICENTER = 86.1172
MEAN_ANOMALY   = 256.7747

EPHEMERIS_TYPE = 0
CLASSIFICATION_TYPE = U
NORAD_CAT_ID   = 66355
ELEMENT_SET_NO = 999
REV_AT_EPOCH   = 538
BSTAR          = -.24089E-1
MEAN_MOTION_DOT = -.2073242E-1
MEAN_MOTION_DDOT = 0

CCSDS_OMM_VERS = 2.0
CREATION_DATE  = 
ORIGINATOR     = 

OBJECT_NAME    = STARLINK-35851
OBJECT_ID      = 2025-254J
CENTER_NAME    = EARTH
REF_FRAME      = TEME
TIME_SYSTEM    = UTC
MEAN_ELEMENT_THEORY = SGP/SGP4

EPOCH          = 2025-12-03T04:00:01.998720
MEAN_MOTION    = 15.64568907
ECCENTRICITY   = .0001118
INCLINATION    = 53.1594
RA_OF_ASC_NODE = 322.5318
ARG_OF_PERICENTER = 90.1870
MEAN_ANOMALY   = 254.6207

EPHEMERIS_TYPE = 0
CLASSIFICATION_TYPE = U
NORAD_CAT_ID   = 66356
ELEMENT_SET_NO = 999
REV_AT_EPOCH   = 538
BSTAR          = -.24128E-1
MEAN_MOTION_DOT = -.2076415E-1
MEAN_MOTION_DDOT = 0

CCSDS_OMM_VERS = 2.0
CREATION_DATE  = 
ORIGINATOR     = 

OBJECT_NAME    = STARLINK-35817
OBJECT_ID      = 2025-254K
CENTER_NAME    = EARTH
REF_FRAME      = TEME
TIME_SYSTEM    = UTC
MEAN_ELEMENT_THEORY = SGP/SGP4

EPOCH          = 2025-12-03T04:00:01.998720
MEAN_MOTION    = 15.64566292
ECCENTRICITY   = .0001095
INCLINATION    = 53.1597
RA_OF_ASC_NODE = 322.5277
ARG_OF_PERICENTER = 92.4582
MEAN_ANOMALY   = 254.2683

EPHEMERIS_TYPE = 0
CLASSIFICATION_TYPE = U
NORAD_CAT_ID   = 66357
ELEMENT_SET_NO = 999
REV_AT_EPOCH   = 538
BSTAR          = -.24097E-1
MEAN_MOTION_DOT = -.2073897E-1
MEAN_MOTION_DDOT = 0

CCSDS_OMM_VERS = 2.0
CREATION_DATE  = 
ORIGINATOR     = 

OBJECT_NAME    = STARLINK-35807
OBJECT_ID      = 2025-254L
CENTER_NAME    = EARTH
REF_FRAME      = TEME
TIME_SYSTEM    = UTC
MEAN_ELEMENT_THEORY = SGP/SGP4

EPOCH          = 2025-12-03T04:00:01.998720
MEAN_MOTION    = 15.64563498
ECCENTRICITY   = .0000979
INCLINATION    = 53.1597
RA_OF_ASC_NODE = 322.5232
ARG_OF_PERICENTER = 88.6681
MEAN_ANOMALY   = 259.9786

EPHEMERIS_TYPE = 0
CLASSIFICATION_TYPE = U
NORAD_CAT_ID   = 66358
ELEMENT_SET_NO = 999
REV_AT_EPOCH   = 538
BSTAR          = -.24051E-1
MEAN_MOTION_DOT = -.2070196E-1
MEAN_MOTION_DDOT = 0

CCSDS_OMM_VERS = 2.0
CREATION_DATE  = 
ORIGINATOR     = 

OBJECT_NAME    = STARLINK-35805
OBJECT_ID      = 2025-254M
CENTER_NAME    = EARTH
REF_FRAME      = TEME
TIME_SYSTEM    = UTC
MEAN_ELEMENT_THEORY = SGP/SGP4

EPOCH          = 2025-12-03T04:00:01.998720
MEAN_MOTION    = 15.64567932
ECCENTRICITY   = .0001133
INCLINATION    = 53.1595
RA_OF_ASC_NODE = 322.5196
ARG_OF_PERICENTER = 88.8087
MEAN_ANOMALY   = 261.7493

EPHEMERIS_TYPE = 0
CLASSIFICATION_TYPE = U
NORAD_CAT_ID   = 66359
ELEMENT_SET_NO = 999
REV_AT_EPOCH   = 535
BSTAR          = -.24096E-1
MEAN_MOTION_DOT = -.2073989E-1
MEAN_MOTION_DDOT = 0

CCSDS_OMM_VERS = 2.0
CREATION_DATE  = 
ORIGINATOR     = 

OBJECT_NAME    = STARLINK-35823
OBJECT_ID      = 2025-254N
CENTER_NAME    = EARTH
REF_FRAME      = TEME
TIME_SYSTEM    = UTC
MEAN_ELEMENT_THEORY = SGP/SGP4

EPOCH          = 2025-12-03T04:00:01.998720
MEAN_MOTION    = 15.64568905
ECCENTRICITY   = .0001034
INCLINATION    = 53.1592
RA_OF_ASC_NODE = 322.5108
ARG_OF_PERICENTER = 90.4850
MEAN_ANOMALY   = 263.9056

EPHEMERIS_TYPE = 0
CLASSIFICATION_TYPE = U
NORAD_CAT_ID   = 66360
ELEMENT_SET_NO = 999
REV_AT_EPOCH   = 538
BSTAR          = -.24095E-1
MEAN_MOTION_DOT = -.2073896E-1
MEAN_MOTION_DDOT = 0

CCSDS_OMM_VERS = 2.0
CREATION_DATE  = 
ORIGINATOR     = 

OBJECT_NAME    = STARLINK-35813
OBJECT_ID      = 2025-254P
CENTER_NAME    = EARTH
REF_FRAME      = TEME
TIME_SYSTEM    = UTC
MEAN_ELEMENT_THEORY = SGP/SGP4

EPOCH          = 2025-12-03T04:00:01.998720
MEAN_MOTION    = 15.64564041
ECCENTRICITY   = .0001148
INCLINATION    = 53.1594
RA_OF_ASC_NODE = 322.5157
ARG_OF_PERICENTER = 89.9853
MEAN_ANOMALY   = 262.4891

EPHEMERIS_TYPE = 0
CLASSIFICATION_TYPE = U
NORAD_CAT_ID   = 66361
ELEMENT_SET_NO = 999
REV_AT_EPOCH   = 538
BSTAR          = -.24018E-1
MEAN_MOTION_DOT = -.2067837E-1
MEAN_MOTION_DDOT = 0

CCSDS_OMM_VERS = 2.0
CREATION_DATE  = 
ORIGINATOR     = 

OBJECT_NAME    = STARLINK-35822
OBJECT_ID      = 2025-254Q
CENTER_NAME    = EARTH
REF_FRAME      = TEME
TIME_SYSTEM    = UTC
MEAN_ELEMENT_THEORY = SGP/SGP4

EPOCH          = 2025-12-03T04:00:01.998720
MEAN_MOTION    = 15.64565646
ECCENTRICITY   = .0001065
INCLINATION    = 53.1598
RA_OF_ASC_NODE = 322.5036
ARG_OF_PERICENTER = 86.4926
MEAN_ANOMALY   = 271.7333

EPHEMERIS_TYPE = 0
CLASSIFICATION_TYPE = U
NORAD_CAT_ID   = 66362
ELEMENT_SET_NO = 999
REV_AT_EPOCH   = 538
BSTAR          = -.24062E-1
MEAN_MOTION_DOT = -.2071205E-1
MEAN_MOTION_DDOT = 0

